HIMAWARI-8              
1 40267U 14060A   23246.78731132 -.00000289  00000+0  00000+0 0  9997
2 40267   0.0189 132.4678 0000980  46.8243 227.4376  1.00270373 32665
